{
  "links" : {
    "next" : "https://api.nasa.gov/neo/rest/v1/feed?start_date=2007-04-16&end_date=2007-04-16&detailed=true&api_key=t0TVs3DtDT2H8Oy2Zy8m2eVrNsAVKAexjcZXUckd",
    "prev" : "https://api.nasa.gov/neo/rest/v1/feed?start_date=2007-04-14&end_date=2007-04-14&detailed=true&api_key=t0TVs3DtDT2H8Oy2Zy8m2eVrNsAVKAexjcZXUckd",
    "self" : "https://api.nasa.gov/neo/rest/v1/feed?start_date=2007-04-15&end_date=2007-04-15&detailed=true&api_key=t0TVs3DtDT2H8Oy2Zy8m2eVrNsAVKAexjcZXUckd"
  },
  "element_count" : 5,
  "near_earth_objects" : {
    "2007-04-15" : [ {
      "links" : {
        "self" : "https://api.nasa.gov/neo/rest/v1/neo/2086829?api_key=t0TVs3DtDT2H8Oy2Zy8m2eVrNsAVKAexjcZXUckd"
      },
      "neo_reference_id" : "2086829",
      "name" : "86829 (2000 GR146)",
      "nasa_jpl_url" : "http://ssd.jpl.nasa.gov/sbdb.cgi?sstr=2086829",
      "absolute_magnitude_h" : 15.9,
      "estimated_diameter" : {
        "kilometers" : {
          "estimated_diameter_min" : 1.7561231848,
          "estimated_diameter_max" : 3.9268108181
        },
        "meters" : {
          "estimated_diameter_min" : 1756.1231848042,
          "estimated_diameter_max" : 3926.8108180856
        },
        "miles" : {
          "estimated_diameter_min" : 1.0912040195,
          "estimated_diameter_max" : 2.4400063648
        },
        "feet" : {
          "estimated_diameter_min" : 5761.559189633,
          "estimated_diameter_max" : 12883.2380044079
        }
      },
      "is_potentially_hazardous_asteroid" : false,
      "close_approach_data" : [ {
        "close_approach_date" : "2007-04-15",
        "epoch_date_close_approach" : 1176620400000,
        "relative_velocity" : {
          "kilometers_per_second" : "16.8441212643",
          "kilometers_per_hour" : "60638.8365513958",
          "miles_per_hour" : "37678.6148560603"
        },
        "miss_distance" : {
          "astronomical" : "0.207563271",
          "lunar" : "80.7421112061",
          "kilometers" : "31051022",
          "miles" : "19294212"
        },
        "orbiting_body" : "Earth"
      } ],
      "orbital_data" : {
        "orbit_id" : "115",
        "orbit_determination_date" : "2017-04-06 09:28:28",
        "orbit_uncertainty" : "0",
        "minimum_orbit_intersection" : ".203132",
        "jupiter_tisserand_invariant" : "4.398",
        "epoch_osculation" : "2458000.5",
        "eccentricity" : ".5747840768988219",
        "semi_major_axis" : "1.462842049753223",
        "inclination" : "14.38178208668741",
        "ascending_node_longitude" : "78.5249101139254",
        "orbital_period" : "646.241108077979",
        "perihelion_distance" : ".6220237325370362",
        "perihelion_argument" : "31.32701391154601",
        "aphelion_distance" : "2.30366036696941",
        "perihelion_time" : "2458027.440449248475",
        "mean_anomaly" : "344.9923478896353",
        "mean_motion" : ".5570676261537983",
        "equinox" : "J2000"
      }
    }, {
      "links" : {
        "self" : "https://api.nasa.gov/neo/rest/v1/neo/2252091?api_key=t0TVs3DtDT2H8Oy2Zy8m2eVrNsAVKAexjcZXUckd"
      },
      "neo_reference_id" : "2252091",
      "name" : "252091 (2000 UP30)",
      "nasa_jpl_url" : "http://ssd.jpl.nasa.gov/sbdb.cgi?sstr=2252091",
      "absolute_magnitude_h" : 17.2,
      "estimated_diameter" : {
        "kilometers" : {
          "estimated_diameter_min" : 0.9650614696,
          "estimated_diameter_max" : 2.1579430484
        },
        "meters" : {
          "estimated_diameter_min" : 965.0614695789,
          "estimated_diameter_max" : 2157.9430484443
        },
        "miles" : {
          "estimated_diameter_min" : 0.5996612104,
          "estimated_diameter_max" : 1.34088323
        },
        "feet" : {
          "estimated_diameter_min" : 3166.2122718533,
          "estimated_diameter_max" : 7079.8658710581
        }
      },
      "is_potentially_hazardous_asteroid" : false,
      "close_approach_data" : [ {
        "close_approach_date" : "2007-04-15",
        "epoch_date_close_approach" : 1176620400000,
        "relative_velocity" : {
          "kilometers_per_second" : "31.7262630871",
          "kilometers_per_hour" : "114214.5471135924",
          "miles_per_hour" : "70968.4778995541"
        },
        "miss_distance" : {
          "astronomical" : "0.2594109838",
          "lunar" : "100.9108734131",
          "kilometers" : "38807332",
          "miles" : "24113758"
        },
        "orbiting_body" : "Earth"
      } ],
      "orbital_data" : {
        "orbit_id" : "73",
        "orbit_determination_date" : "2017-09-27 06:52:17",
        "orbit_uncertainty" : "0",
        "minimum_orbit_intersection" : ".0670039",
        "jupiter_tisserand_invariant" : "3.152",
        "epoch_osculation" : "2458000.5",
        "eccentricity" : ".7612771255766104",
        "semi_major_axis" : "2.251834028130482",
        "inclination" : "9.362986149306851",
        "ascending_node_longitude" : "194.9632790633732",
        "orbital_period" : "1234.249594668934",
        "perihelion_distance" : ".5375642919197086",
        "perihelion_argument" : "118.8673958385672",
        "aphelion_distance" : "3.966103764341256",
        "perihelion_time" : "2457943.565449470070",
        "mean_anomaly" : "16.60639653381665",
        "mean_motion" : ".2916752021268142",
        "equinox" : "J2000"
      }
    }, {
      "links" : {
        "self" : "https://api.nasa.gov/neo/rest/v1/neo/2434326?api_key=t0TVs3DtDT2H8Oy2Zy8m2eVrNsAVKAexjcZXUckd"
      },
      "neo_reference_id" : "2434326",
      "name" : "434326 (2004 JG6)",
      "nasa_jpl_url" : "http://ssd.jpl.nasa.gov/sbdb.cgi?sstr=2434326",
      "absolute_magnitude_h" : 18.4,
      "estimated_diameter" : {
        "kilometers" : {
          "estimated_diameter_min" : 0.5553349116,
          "estimated_diameter_max" : 1.2417666126
        },
        "meters" : {
          "estimated_diameter_min" : 555.334911581,
          "estimated_diameter_max" : 1241.766612574
        },
        "miles" : {
          "estimated_diameter_min" : 0.3450690093,
          "estimated_diameter_max" : 0.7715977618
        },
        "feet" : {
          "estimated_diameter_min" : 1821.9649913114,
          "estimated_diameter_max" : 4074.0375731972
        }
      },
      "is_potentially_hazardous_asteroid" : true,
      "close_approach_data" : [ {
        "close_approach_date" : "2007-04-15",
        "epoch_date_close_approach" : 1176620400000,
        "relative_velocity" : {
          "kilometers_per_second" : "17.9284615171",
          "kilometers_per_hour" : "64542.4614614887",
          "miles_per_hour" : "40104.1755675567"
        },
        "miss_distance" : {
          "astronomical" : "0.2782924023",
          "lunar" : "108.2557373047",
          "kilometers" : "41631948",
          "miles" : "25868894"
        },
        "orbiting_body" : "Earth"
      } ],
      "orbital_data" : {
        "orbit_id" : "33",
        "orbit_determination_date" : "2017-04-06 09:20:49",
        "orbit_uncertainty" : "1",
        "minimum_orbit_intersection" : ".03814",
        "jupiter_tisserand_invariant" : "8.751",
        "epoch_osculation" : "2458000.5",
        "eccentricity" : ".5311980211575074",
        "semi_major_axis" : ".6352164510266495",
        "inclination" : "18.94493054984403",
        "ascending_node_longitude" : "37.03187445787724",
        "orbital_period" : "184.9187855050641",
        "perihelion_distance" : ".2977907292345986",
        "perihelion_argument" : "352.9927365644639",
        "aphelion_distance" : ".9726421728187004",
        "perihelion_time" : "2458023.337663671835",
        "mean_anomaly" : "315.5396229787827",
        "mean_motion" : "1.946800586088324",
        "equinox" : "J2000"
      }
    } ]
  }
}